{
  "type": "FeatureCollection",
  "features": [
    {
      "type": "Feature",
      "properties": {
        "norad_id": 24946,
        "name": "IRIDIUM 33",
        "group": "iridium-33-debris",
        "lat": -62.787807138645235,
        "lon": 61.270250910705194,
        "alt_km": 782.7132262281602,
        "timestamp": "2025-12-12T11:38:31.796968+00:00",
        "meta_object_name": "IRIDIUM 33",
        "meta_object_id": "1997-051C",
        "meta_epoch": "2025-12-12T03:34:05.305728",
        "meta_mean_motion": 14.35036991,
        "meta_eccentricity": 0.0006955,
        "meta_inclination": 86.3869,
        "meta_ra_of_asc_node": 68.4698,
        "meta_arg_of_pericenter": 202.4138,
        "meta_mean_anomaly": 157.6755,
        "meta_ephemeris_type": 0,
        "meta_classification_type": "U",
        "meta_norad_cat_id": 24946,
        "meta_element_set_no": 999,
        "meta_rev_at_epoch": 47826,
        "meta_bstar": 0.00019279,
        "meta_mean_motion_dot": 5.69e-06,
        "meta_mean_motion_ddot": 0,
        "tle_line1": "1 24946U 97051C   25346.14867252  .00000569  00000+0  19279-3 0  9992",
        "tle_line2": "2 24946  86.3869  68.4698 0006955 202.4138 157.6755 14.35036991478267"
      },
      "geometry": {
        "type": "Point",
        "coordinates": [
          61.270250910705194,
          -62.787807138645235
        ]
      }
    },
    {
      "type": "Feature",
      "properties": {
        "norad_id": 33773,
        "name": "IRIDIUM 33 DEB",
        "group": "iridium-33-debris",
        "lat": -66.37168953495735,
        "lon": -111.03122480274662,
        "alt_km": 756.5753794649427,
        "timestamp": "2025-12-12T11:38:31.797012+00:00",
        "meta_object_name": "IRIDIUM 33 DEB",
        "meta_object_id": "1997-051L",
        "meta_epoch": "2025-12-12T03:50:53.265408",
        "meta_mean_motion": 14.43255336,
        "meta_eccentricity": 0.0012468,
        "meta_inclination": 86.4012,
        "meta_ra_of_asc_node": 60.8352,
        "meta_arg_of_pericenter": 147.9676,
        "meta_mean_anomaly": 212.2286,
        "meta_ephemeris_type": 0,
        "meta_classification_type": "U",
        "meta_norad_cat_id": 33773,
        "meta_element_set_no": 999,
        "meta_rev_at_epoch": 88339,
        "meta_bstar": 0.00048847,
        "meta_mean_motion_dot": 1.664e-05,
        "meta_mean_motion_ddot": 0,
        "tle_line1": "1 33773U 97051L   25346.16033872  .00001664  00000+0  48847-3 0  9995",
        "tle_line2": "2 33773  86.4012  60.8352 0012468 147.9676 212.2286 14.43255336883391"
      },
      "geometry": {
        "type": "Point",
        "coordinates": [
          -111.03122480274662,
          -66.37168953495735
        ]
      }
    },
    {
      "type": "Feature",
      "properties": {
        "norad_id": 33775,
        "name": "IRIDIUM 33 DEB",
        "group": "iridium-33-debris",
        "lat": -28.455996136853308,
        "lon": 47.687379950505516,
        "alt_km": 769.7074497949843,
        "timestamp": "2025-12-12T11:38:31.797029+00:00",
        "meta_object_name": "IRIDIUM 33 DEB",
        "meta_object_id": "1997-051N",
        "meta_epoch": "2025-12-12T03:32:35.377152",
        "meta_mean_motion": 14.41466731,
        "meta_eccentricity": 0.0014228,
        "meta_inclination": 86.3638,
        "meta_ra_of_asc_node": 49.8064,
        "meta_arg_of_pericenter": 156.4056,
        "meta_mean_anomaly": 225.1218,
        "meta_ephemeris_type": 0,
        "meta_classification_type": "U",
        "meta_norad_cat_id": 33775,
        "meta_element_set_no": 999,
        "meta_rev_at_epoch": 88132,
        "meta_bstar": 0.00050032,
        "meta_mean_motion_dot": 1.644e-05,
        "meta_mean_motion_ddot": 0,
        "tle_line1": "1 33775U 97051N   25346.14763168  .00001644  00000+0  50032-3 0  9990",
        "tle_line2": "2 33775  86.3638  49.8064 0014228 156.4056 225.1218 14.41466731881326"
      },
      "geometry": {
        "type": "Point",
        "coordinates": [
          47.687379950505516,
          -28.455996136853308
        ]
      }
    },
    {
      "type": "Feature",
      "properties": {
        "norad_id": 33776,
        "name": "IRIDIUM 33 DEB",
        "group": "iridium-33-debris",
        "lat": -24.330365839533695,
        "lon": -97.4876843129925,
        "alt_km": 760.0445673513759,
        "timestamp": "2025-12-12T11:38:31.797043+00:00",
        "meta_object_name": "IRIDIUM 33 DEB",
        "meta_object_id": "1997-051P",
        "meta_epoch": "2025-12-11T20:14:11.965056",
        "meta_mean_motion": 14.38232823,
        "meta_eccentricity": 0.00142384,
        "meta_inclination": 86.4036,
        "meta_ra_of_asc_node": 81.1523,
        "meta_arg_of_pericenter": 193.3301,
        "meta_mean_anomaly": 289.5009,
        "meta_ephemeris_type": 0,
        "meta_classification_type": "U",
        "meta_norad_cat_id": 33776,
        "meta_element_set_no": 999,
        "meta_rev_at_epoch": 88069,
        "meta_bstar": 0.00047397129,
        "meta_mean_motion_dot": 1.46e-05,
        "meta_mean_motion_ddot": 0,
        "tle_line1": "1 33776U 97051P   25345.84319404  .00001460  00000+0  47397-3 0  9993",
        "tle_line2": "2 33776  86.4036  81.1523 0014238 193.3301 289.5009 14.38232823880693"
      },
      "geometry": {
        "type": "Point",
        "coordinates": [
          -97.4876843129925,
          -24.330365839533695
        ]
      }
    },
    {
      "type": "Feature",
      "properties": {
        "norad_id": 33777,
        "name": "IRIDIUM 33 DEB",
        "group": "iridium-33-debris",
        "lat": -23.99294084217609,
        "lon": 33.69884886739872,
        "alt_km": 712.6960514585899,
        "timestamp": "2025-12-12T11:38:31.797056+00:00",
        "meta_object_name": "IRIDIUM 33 DEB",
        "meta_object_id": "1997-051Q",
        "meta_epoch": "2025-12-12T03:30:11.219616",
        "meta_mean_motion": 14.55608327,
        "meta_eccentricity": 0.000515,
        "meta_inclination": 86.3787,
        "meta_ra_of_asc_node": 35.4615,
        "meta_arg_of_pericenter": 251.76,
        "meta_mean_anomaly": 108.3047,
        "meta_ephemeris_type": 0,
        "meta_classification_type": "U",
        "meta_norad_cat_id": 33777,
        "meta_element_set_no": 999,
        "meta_rev_at_epoch": 88525,
        "meta_bstar": 0.0013938,
        "meta_mean_motion_dot": 6.101e-05,
        "meta_mean_motion_ddot": 0,
        "tle_line1": "1 33777U 97051Q   25346.14596319  .00006101  00000+0  13938-2 0  9990",
        "tle_line2": "2 33777  86.3787  35.4615 0005150 251.7600 108.3047 14.55608327885256"
      },
      "geometry": {
        "type": "Point",
        "coordinates": [
          33.69884886739872,
          -23.99294084217609
        ]
      }
    },
    {
      "type": "Feature",
      "properties": {
        "norad_id": 33850,
        "name": "IRIDIUM 33 DEB",
        "group": "iridium-33-debris",
        "lat": -48.02257413831513,
        "lon": 26.211656927481265,
        "alt_km": 765.8685640721978,
        "timestamp": "2025-12-12T11:38:31.797068+00:00",
        "meta_object_name": "IRIDIUM 33 DEB",
        "meta_object_id": "1997-051T",
        "meta_epoch": "2025-12-12T03:47:17.414016",
        "meta_mean_motion": 14.4214467,
        "meta_eccentricity": 0.001217,
        "meta_inclination": 86.3418,
        "meta_ra_of_asc_node": 30.43,
        "meta_arg_of_pericenter": 162.7962,
        "meta_mean_anomaly": 251.1586,
        "meta_ephemeris_type": 0,
        "meta_classification_type": "U",
        "meta_norad_cat_id": 33850,
        "meta_element_set_no": 999,
        "meta_rev_at_epoch": 88144,
        "meta_bstar": 0.00046244,
        "meta_mean_motion_dot": 1.541e-05,
        "meta_mean_motion_ddot": 0,
        "tle_line1": "1 33850U 97051T   25346.15784044  .00001541  00000+0  46244-3 0  9997",
        "tle_line2": "2 33850  86.3418  30.4300 0012170 162.7962 251.1586 14.42144670881441"
      },
      "geometry": {
        "type": "Point",
        "coordinates": [
          26.211656927481265,
          -48.02257413831513
        ]
      }
    },
    {
      "type": "Feature",
      "properties": {
        "norad_id": 33853,
        "name": "IRIDIUM 33 DEB",
        "group": "iridium-33-debris",
        "lat": 15.76230796814922,
        "lon": -8.945202195177956,
        "alt_km": 1010.6412882285695,
        "timestamp": "2025-12-12T11:38:31.797080+00:00",
        "meta_object_name": "IRIDIUM 33 DEB",
        "meta_object_id": "1997-051W",
        "meta_epoch": "2025-12-11T23:41:06.381888",
        "meta_mean_motion": 13.99054711,
        "meta_eccentricity": 0.020703,
        "meta_inclination": 86.0002,
        "meta_ra_of_asc_node": 350.1415,
        "meta_arg_of_pericenter": 238.1458,
        "meta_mean_anomaly": 148.4368,
        "meta_ephemeris_type": 0,
        "meta_classification_type": "U",
        "meta_norad_cat_id": 33853,
        "meta_element_set_no": 999,
        "meta_rev_at_epoch": 85335,
        "meta_bstar": 0.0027296,
        "meta_mean_motion_dot": 4.759e-05,
        "meta_mean_motion_ddot": 0,
        "tle_line1": "1 33853U 97051W   25345.98687942  .00004759  00000+0  27296-2 0  9998",
        "tle_line2": "2 33853  86.0002 350.1415 0207030 238.1458 148.4368 13.99054711853350"
      },
      "geometry": {
        "type": "Point",
        "coordinates": [
          -8.945202195177956,
          15.76230796814922
        ]
      }
    }
  ]
}